{"type": "FeatureCollection", "features": [ {"type": "Feature", "properties": {"norad_id": 44543, "name": "BEIDOU-3 M23 (C45)", "group": "beidou", "lat": 21.388489263365038, "lon": -7.182082414065413, "alt_km": 21536.790234774846, "timestamp": "2025-12-08T23:34:04.234845+00:00", "meta": {"OBJECT_NAME": "BEIDOU-3 M23 (C45)", "OBJECT_ID": "2019-061B", "EPOCH": "2025-12-08T05:13:38.206848", "MEAN_MOTION": 1.86227543, "ECCENTRICITY": 0.00060833, "INCLINATION": 54.3988, "RA_OF_ASC_NODE": 189.137, "ARG_OF_PERICENTER": 22.991, "MEAN_ANOMALY": 337.9683, "EPHEMERIS_TYPE": 0, "CLASSIFICATION_TYPE": "U", "NORAD_CAT_ID": 44543, "ELEMENT_SET_NO": 999, "REV_AT_EPOCH": 4224, "BSTAR": 0, "MEAN_MOTION_DOT": 5.2e-07, "MEAN_MOTION_DDOT": 0}, "tle": {"line1": "1 44543U 19061B   25342.21780332  .00000052  00000+0  00000+0 0  9994", "line2": "2 44543  54.3988 189.1370 0006083  22.9910 337.9683  1.86227543 42247"}}, "geometry": {"type": "Point", "coordinates": [-7.182082414065413, 21.388489263365038]}}, {"type": "Feature", "properties": {"norad_id": 44709, "name": "BEIDOU-3 IGSO-3 (C40)", "group": "beidou", "lat": -54.51447296682136, "lon": -179.6240326854002, "alt_km": 35738.79666218464, "timestamp": "2025-12-08T23:34:04.234857+00:00", "meta": {"OBJECT_NAME": "BEIDOU-3 IGSO-3 (C40)", "OBJECT_ID": "2019-073A", "EPOCH": "2025-11-20T07:11:22.740000", "MEAN_MOTION": 1.00250097, "ECCENTRICITY": 0.0044538, "INCLINATION": 55.163, "RA_OF_ASC_NODE": 283.159, "ARG_OF_PERICENTER": 191.5856, "MEAN_ANOMALY": 168.2409, "EPHEMERIS_TYPE": 0, "CLASSIFICATION_TYPE": "U", "NORAD_CAT_ID": 44709, "ELEMENT_SET_NO": 999, "REV_AT_EPOCH": 2236, "BSTAR": 0, "MEAN_MOTION_DOT": -2.06e-06, "MEAN_MOTION_DDOT": 0}, "tle": {"line1": "1 44709U 19073A   25324.29956875 -.00000206  00000+0  00000+0 0  9998", "line2": "2 44709  55.1630 283.1590 0044538 191.5856 168.2409  1.00250097 22360"}}, "geometry": {"type": "Point", "coordinates": [-179.6240326854002, -54.51447296682136]}}, {"type": "Feature", "properties": {"norad_id": 44793, "name": "BEIDOU-3 M22 (C44)", "group": "beidou", "lat": -10.014054081587446, "lon": -60.8418132330369, "alt_km": 21516.467870486136, "timestamp": "2025-12-08T23:34:04.234872+00:00", "meta": {"OBJECT_NAME": "BEIDOU-3 M22 (C44)", "OBJECT_ID": "2019-078A", "EPOCH": "2025-12-05T05:48:12.053952", "MEAN_MOTION": 1.86231816, "ECCENTRICITY": 0.00057288, "INCLINATION": 54.1154, "RA_OF_ASC_NODE": 306.6493, "ARG_OF_PERICENTER": 22.8633, "MEAN_ANOMALY": 337.1445, "EPHEMERIS_TYPE": 0, "CLASSIFICATION_TYPE": "U", "NORAD_CAT_ID": 44793, "ELEMENT_SET_NO": 999, "REV_AT_EPOCH": 4103, "BSTAR": 0, "MEAN_MOTION_DOT": -6.9e-07, "MEAN_MOTION_DDOT": 0}, "tle": {"line1": "1 44793U 19078A   25339.24180618 -.00000069  00000+0  00000+0 0  9998", "line2": "2 44793  54.1154 306.6493 0005728  22.8633 337.1445  1.86231816 41037"}}, "geometry": {"type": "Point", "coordinates": [-60.8418132330369, -10.014054081587446]}}, {"type": "Feature", "properties": {"norad_id": 44794, "name": "BEIDOU-3 M21 (C43)", "group": "beidou", "lat": -51.59747732794706, "lon": -167.52500561838184, "alt_km": 21538.759400636034, "timestamp": "2025-12-08T23:34:04.234884+00:00", "meta": {"OBJECT_NAME": "BEIDOU-3 M21 (C43)", "OBJECT_ID": "2019-078B", "EPOCH": "2025-12-05T21:59:25.852416", "MEAN_MOTION": 1.86227538, "ECCENTRICITY": 0.00039607, "INCLINATION": 54.088, "RA_OF_ASC_NODE": 306.5908, "ARG_OF_PERICENTER": 10.7864, "MEAN_ANOMALY": 349.2048, "EPHEMERIS_TYPE": 0, "CLASSIFICATION_TYPE": "U", "NORAD_CAT_ID": 44794, "ELEMENT_SET_NO": 999, "REV_AT_EPOCH": 4105, "BSTAR": 0, "MEAN_MOTION_DOT": -6.9e-07, "MEAN_MOTION_DDOT": 0}, "tle": {"line1": "1 44794U 19078B   25339.91627144 -.00000069  00000+0  00000+0 0  9993", "line2": "2 44794  54.0880 306.5908 0003960  10.7864 349.2048  1.86227538 41052"}}, "geometry": {"type": "Point", "coordinates": [-167.52500561838184, -51.59747732794706]}}, {"type": "Feature", "properties": {"norad_id": 44864, "name": "BEIDOU-3 M19 (C41)", "group": "beidou", "lat": 56.39386763274741, "lon": 161.16310951978693, "alt_km": 21569.103151594925, "timestamp": "2025-12-08T23:34:04.234896+00:00", "meta": {"OBJECT_NAME": "BEIDOU-3 M19 (C41)", "OBJECT_ID": "2019-090A", "EPOCH": "2025-12-02T22:27:31.551840", "MEAN_MOTION": 1.86231053, "ECCENTRICITY": 0.00175607, "INCLINATION": 56.3847, "RA_OF_ASC_NODE": 69.2872, "ARG_OF_PERICENTER": 284.9296, "MEAN_ANOMALY": 72.494, "EPHEMERIS_TYPE": 0, "CLASSIFICATION_TYPE": "U", "NORAD_CAT_ID": 44864, "ELEMENT_SET_NO": 999, "REV_AT_EPOCH": 4057, "BSTAR": 0, "MEAN_MOTION_DOT": -4.9e-07, "MEAN_MOTION_DDOT": 0}, "tle": {"line1": "1 44864U 19090A   25336.93578185 -.00000049  00000+0  00000+0 0  9992", "line2": "2 44864  56.3847  69.2872 0017560 284.9296  72.4940  1.86231053 40575"}}, "geometry": {"type": "Point", "coordinates": [161.16310951978693, 56.39386763274741]}}, {"type": "Feature", "properties": {"norad_id": 44865, "name": "BEIDOU-3 M20 (C42)", "group": "beidou", "lat": -0.4871933633340282, "lon": -110.54670732977178, "alt_km": 21547.401074946003, "timestamp": "2025-12-08T23:34:04.234907+00:00", "meta": {"OBJECT_NAME": "BEIDOU-3 M20 (C42)", "OBJECT_ID": "2019-090B", "EPOCH": "2025-12-08T06:57:34.455168", "MEAN_MOTION": 1.8623116, "ECCENTRICITY": 0.00149301, "INCLINATION": 56.3913, "RA_OF_ASC_NODE": 69.143, "ARG_OF_PERICENTER": 297.776, "MEAN_ANOMALY": 138.9742, "EPHEMERIS_TYPE": 0, "CLASSIFICATION_TYPE": "U", "NORAD_CAT_ID": 44865, "ELEMENT_SET_NO": 999, "REV_AT_EPOCH": 4066, "BSTAR": 0, "MEAN_MOTION_DOT": -4.5e-07, "MEAN_MOTION_DDOT": 0}, "tle": {"line1": "1 44865U 19090B   25342.28998212 -.00000045  00000+0  00000+0 0  9991", "line2": "2 44865  56.3913  69.1430 0014930 297.7760 138.9742  1.86231160 40662"}}, "geometry": {"type": "Point", "coordinates": [-110.54670732977178, -0.4871933633340282]}}, {"type": "Feature", "properties": {"norad_id": 45344, "name": "BEIDOU-3 G2 (C60)", "group": "beidou", "lat": 2.377992920857012, "lon": 151.50371378074834, "alt_km": 35802.33721461822, "timestamp": "2025-12-08T23:34:04.234919+00:00", "meta": {"OBJECT_NAME": "BEIDOU-3 G2 (C60)", "OBJECT_ID": "2020-017A", "EPOCH": "2025-12-08T13:59:05.057088", "MEAN_MOTION": 1.00273166, "ECCENTRICITY": 0.00043524, "INCLINATION": 2.4896, "RA_OF_ASC_NODE": 43.8286, "ARG_OF_PERICENTER": 265.3974, "MEAN_ANOMALY": 58.14, "EPHEMERIS_TYPE": 0, "CLASSIFICATION_TYPE": "U", "NORAD_CAT_ID": 45344, "ELEMENT_SET_NO": 999, "REV_AT_EPOCH": 2134, "BSTAR": 0, "MEAN_MOTION_DOT": -1.39e-06, "MEAN_MOTION_DDOT": 0}, "tle": {"line1": "1 45344U 20017A   25342.58269742 -.00000139  00000+0  00000+0 0  9991", "line2": "2 45344   2.4896  43.8286 0004352 265.3974  58.1400  1.00273166 21346"}}, "geometry": {"type": "Point", "coordinates": [151.50371378074834, 2.377992920857012]}}, {"type": "Feature", "properties": {"norad_id": 45807, "name": "BEIDOU-3 G3 (C61)", "group": "beidou", "lat": 1.783903601241313, "lon": -177.96316038529608, "alt_km": 35809.599022365386, "timestamp": "2025-12-08T23:34:04.234931+00:00", "meta": {"OBJECT_NAME": "BEIDOU-3 G3 (C61)", "OBJECT_ID": "2020-040A", "EPOCH": "2025-12-08T14:07:49.219968", "MEAN_MOTION": 1.00275865, "ECCENTRICITY": 0.00060191, "INCLINATION": 1.9812, "RA_OF_ASC_NODE": 66.5832, "ARG_OF_PERICENTER": 306.2676, "MEAN_ANOMALY": 27.2048, "EPHEMERIS_TYPE": 0, "CLASSIFICATION_TYPE": "U", "NORAD_CAT_ID": 45807, "ELEMENT_SET_NO": 999, "REV_AT_EPOCH": 2015, "BSTAR": 0, "MEAN_MOTION_DOT": -3.52e-06, "MEAN_MOTION_DDOT": 0}, "tle": {"line1": "1 45807U 20040A   25342.58876412 -.00000352  00000+0  00000+0 0  9996", "line2": "2 45807   1.9812  66.5832 0006019 306.2676  27.2048  1.00275865 20158"}}, "geometry": {"type": "Point", "coordinates": [-177.96316038529608, 1.783903601241313]}}, {"type": "Feature", "properties": {"norad_id": 56564, "name": "BEIDOU-3 G4 (C62)", "group": "beidou", "lat": -0.7941904257633712, "lon": -128.4117193455143, "alt_km": 35778.78278405849, "timestamp": "2025-12-08T23:34:04.234943+00:00", "meta": {"OBJECT_NAME": "BEIDOU-3 G4 (C62)", "OBJECT_ID": "2023-066A", "EPOCH": "2025-12-08T13:24:38.712960", "MEAN_MOTION": 1.00271138, "ECCENTRICITY": 0.00030479, "INCLINATION": 0.8241, "RA_OF_ASC_NODE": 301.7118, "ARG_OF_PERICENTER": 236.1797, "MEAN_ANOMALY": 260.9005, "EPHEMERIS_TYPE": 0, "CLASSIFICATION_TYPE": "U", "NORAD_CAT_ID": 56564, "ELEMENT_SET_NO": 999, "REV_AT_EPOCH": 948, "BSTAR": 0, "MEAN_MOTION_DOT": -1.09e-06, "MEAN_MOTION_DDOT": 0}, "tle": {"line1": "1 56564U 23066A   25342.55878140 -.00000109  00000+0  00000+0 0  9996", "line2": "2 56564   0.8241 301.7118 0003047 236.1797 260.9005  1.00271138  9489"}}, "geometry": {"type": "Point", "coordinates": [-128.4117193455143, -0.7941904257633712]}}, {"type": "Feature", "properties": {"norad_id": 58654, "name": "BEIDOU-3 M28 (C50)", "group": "beidou", "lat": -18.734413967915284, "lon": -97.83471700931405, "alt_km": 21528.19215347925, "timestamp": "2025-12-08T23:34:04.234955+00:00", "meta": {"OBJECT_NAME": "BEIDOU-3 M28 (C50)", "OBJECT_ID": "2023-207A", "EPOCH": "2025-12-06T12:45:22.310208", "MEAN_MOTION": 1.86229594, "ECCENTRICITY": 0.00021908, "INCLINATION": 55.5792, "RA_OF_ASC_NODE": 68.8117, "ARG_OF_PERICENTER": 267.5881, "MEAN_ANOMALY": 92.402, "EPHEMERIS_TYPE": 0, "CLASSIFICATION_TYPE": "U", "NORAD_CAT_ID": 58654, "ELEMENT_SET_NO": 999, "REV_AT_EPOCH": 1325, "BSTAR": 0, "MEAN_MOTION_DOT": -4.7e-07, "MEAN_MOTION_DDOT": 0}, "tle": {"line1": "1 58654U 23207A   25340.53150822 -.00000047  00000+0  00000+0 0  9992", "line2": "2 58654  55.5792  68.8117 0002190 267.5881  92.4020  1.86229594 13257"}}, "geometry": {"type": "Point", "coordinates": [-97.83471700931405, -18.734413967915284]}}]}